{
    "links": {
        "self": "http://www.neowsapp.com/rest/v1/neo/3616819?api_key=iIulBulltgU6a56xZRHN4H3l9WmuAYTsLGpBGhQ2"
    },
    "id": "3616819",
    "neo_reference_id": "3616819",
    "name": "(2012 VA20)",
    "designation": "2012 VA20",
    "nasa_jpl_url": "http://ssd.jpl.nasa.gov/sbdb.cgi?sstr=3616819",
    "absolute_magnitude_h": 22.8,
    "estimated_diameter": {
        "kilometers": {
            "estimated_diameter_min": 0.0732073989,
            "estimated_diameter_max": 0.1636967205
        },
        "meters": {
            "estimated_diameter_min": 73.2073989347,
            "estimated_diameter_max": 163.696720474
        },
        "miles": {
            "estimated_diameter_min": 0.0454889547,
            "estimated_diameter_max": 0.1017163949
        },
        "feet": {
            "estimated_diameter_min": 240.181762721,
            "estimated_diameter_max": 537.0627483999
        }
    },
    "is_potentially_hazardous_asteroid": false,
    "close_approach_data": [
        {
            "close_approach_date": "2012-10-11",
            "close_approach_date_full": "2012-Oct-11 10:32",
            "epoch_date_close_approach": 1349951520000,
            "relative_velocity": {
                "kilometers_per_second": "16.4151038465",
                "kilometers_per_hour": "59094.3738472902",
                "miles_per_hour": "36718.9457941676"
            },
            "miss_distance": {
                "astronomical": "0.0663598681",
                "lunar": "25.8139886909",
                "kilometers": "9927294.921240947",
                "miles": "6168535.0252891886"
            },
            "orbiting_body": "Earth"
        },
        {
            "close_approach_date": "2106-04-21",
            "close_approach_date_full": "2106-Apr-21 06:11",
            "epoch_date_close_approach": 4301273460000,
            "relative_velocity": {
                "kilometers_per_second": "26.3381036342",
                "kilometers_per_hour": "94817.1730831787",
                "miles_per_hour": "58915.7040193784"
            },
            "miss_distance": {
                "astronomical": "0.3709386035",
                "lunar": "144.2951167615",
                "kilometers": "55491624.984374545",
                "miles": "34480896.864856921"
            },
            "orbiting_body": "Earth"
        },
        {
            "close_approach_date": "2145-11-01",
            "close_approach_date_full": "2145-Nov-01 18:37",
            "epoch_date_close_approach": 5548847820000,
            "relative_velocity": {
                "kilometers_per_second": "26.849665102",
                "kilometers_per_hour": "96658.7943671917",
                "miles_per_hour": "60060.0158666587"
            },
            "miss_distance": {
                "astronomical": "0.3866150529",
                "lunar": "150.3932555781",
                "kilometers": "57836788.423777323",
                "miles": "35938113.8540521374"
            },
            "orbiting_body": "Earth"
        }
    ],
    "orbital_data": {
        "orbit_id": "7",
        "orbit_determination_date": "2017-04-06 08:48:08",
        "first_observation_date": "2012-11-05",
        "last_observation_date": "2012-11-15",
        "data_arc_in_days": 10,
        "observations_used": 16,
        "orbit_uncertainty": "8",
        "minimum_orbit_intersection": ".0181152",
        "jupiter_tisserand_invariant": "4.036",
        "epoch_osculation": "2456237.5",
        "eccentricity": ".5542833625996239",
        "semi_major_axis": "1.682703620778912",
        "inclination": "4.393672577989733",
        "ascending_node_longitude": "62.79700317174701",
        "orbital_period": "797.2781658239701",
        "perihelion_distance": ".7500089995950145",
        "perihelion_argument": "240.0239756339916",
        "aphelion_distance": "2.61539824196281",
        "perihelion_time": "2456163.961878631234",
        "mean_anomaly": "33.20512818182563",
        "mean_motion": ".4515362585252132",
        "equinox": "J2000",
        "orbit_class": {
            "orbit_class_type": "APO",
            "orbit_class_description": "Near-Earth asteroid orbits which cross the Earth’s orbit similar to that of 1862 Apollo",
            "orbit_class_range": "a (semi-major axis) > 1.0 AU; q (perihelion) < 1.017 AU"
        }
    },
    "is_sentry_object": false
}